{"epoch":1784799577,"count":18318,"objects":[{"id":"38012","name":"PLEIADES 1","type":"PAYLOAD","l1":"1 38012U 11076F   26203.94410039  .00000028  00000-0  15769-4 0  9994","l2":"2 38012  98.1961 278.5639 0001593  76.9717  27.5198 14.58548947777205"},{"id":"39019","name":"PLEIADES 1B","type":"PAYLOAD","l1":"1 39019U 12068A   26203.95824852  .00000057  00000-0  22138-4 0  9997","l2":"2 39019  98.1930 278.5144 0001466  77.4982 282.6382 14.58536518726067"}]}